MALLIGYONG-1            
1 58400U 23179A   24177.53633012  .00005293  00000+0  24062-3 0  9998
2 58400  97.4025  64.2440 0003093 129.4556 230.6954 15.21162781 32999
